CCSDS_OMM_VERS = 2.0
CREATION_DATE  = 
ORIGINATOR     = 

OBJECT_NAME    = SL-14 R/B
OBJECT_ID      = 1986-046B
CENTER_NAME    = EARTH
REF_FRAME      = TEME
TIME_SYSTEM    = UTC
MEAN_ELEMENT_THEORY = SGP/SGP4

EPOCH          = 2025-12-28T19:31:22.262304
MEAN_MOTION    = 14.85503332
ECCENTRICITY   = .00246019
INCLINATION    = 82.4820
RA_OF_ASC_NODE = 147.1339
ARG_OF_PERICENTER = 101.6791
MEAN_ANOMALY   = 258.7188

EPHEMERIS_TYPE = 0
CLASSIFICATION_TYPE = U
NORAD_CAT_ID   = 16792
ELEMENT_SET_NO = 999
REV_AT_EPOCH   = 11588
BSTAR          = .83726891E-4
MEAN_MOTION_DOT = .751E-5
MEAN_MOTION_DDOT = 0

CCSDS_OMM_VERS = 2.0
CREATION_DATE  = 
ORIGINATOR     = 

OBJECT_NAME    = SL-14 R/B
OBJECT_ID      = 1986-055B
CENTER_NAME    = EARTH
REF_FRAME      = TEME
TIME_SYSTEM    = UTC
MEAN_ELEMENT_THEORY = SGP/SGP4

EPOCH          = 2025-12-29T00:45:18.539712
MEAN_MOTION    = 14.85547928
ECCENTRICITY   = .00182996
INCLINATION    = 82.5192
RA_OF_ASC_NODE = 193.0635
ARG_OF_PERICENTER = 201.9284
MEAN_ANOMALY   = 316.7036

EPHEMERIS_TYPE = 0
CLASSIFICATION_TYPE = U
NORAD_CAT_ID   = 16882
ELEMENT_SET_NO = 999
REV_AT_EPOCH   = 10887
BSTAR          = .85138085E-4
MEAN_MOTION_DOT = .762E-5
MEAN_MOTION_DDOT = 0

CCSDS_OMM_VERS = 2.0
CREATION_DATE  = 
ORIGINATOR     = 

OBJECT_NAME    = AJISAI (EGS)
OBJECT_ID      = 1986-061A
CENTER_NAME    = EARTH
REF_FRAME      = TEME
TIME_SYSTEM    = UTC
MEAN_ELEMENT_THEORY = SGP/SGP4

EPOCH          = 2025-12-29T06:58:42.386304
MEAN_MOTION    = 12.44514472
ECCENTRICITY   = .00113214
INCLINATION    = 50.0110
RA_OF_ASC_NODE = 309.8245
ARG_OF_PERICENTER = 107.4251
MEAN_ANOMALY   = 341.9928

EPHEMERIS_TYPE = 0
CLASSIFICATION_TYPE = U
NORAD_CAT_ID   = 16908
ELEMENT_SET_NO = 999
REV_AT_EPOCH   = 45923
BSTAR          = .56598948E-4
MEAN_MOTION_DOT = -.89E-6
MEAN_MOTION_DDOT = 0

CCSDS_OMM_VERS = 2.0
CREATION_DATE  = 
ORIGINATOR     = 

OBJECT_NAME    = COSMOS 1812
OBJECT_ID      = 1987-003A
CENTER_NAME    = EARTH
REF_FRAME      = TEME
TIME_SYSTEM    = UTC
MEAN_ELEMENT_THEORY = SGP/SGP4

EPOCH          = 2025-12-29T05:25:58.792224
MEAN_MOTION    = 15.79169575
ECCENTRICITY   = .00057676
INCLINATION    = 82.4870
RA_OF_ASC_NODE = 274.1257
ARG_OF_PERICENTER = 64.7602
MEAN_ANOMALY   = 295.4262

EPHEMERIS_TYPE = 0
CLASSIFICATION_TYPE = U
NORAD_CAT_ID   = 17295
ELEMENT_SET_NO = 999
REV_AT_EPOCH   = 13325
BSTAR          = .84754993E-3
MEAN_MOTION_DOT = .153454E-2
MEAN_MOTION_DDOT = 0

CCSDS_OMM_VERS = 2.0
CREATION_DATE  = 
ORIGINATOR     = 

OBJECT_NAME    = SL-14 R/B
OBJECT_ID      = 1987-024B
CENTER_NAME    = EARTH
REF_FRAME      = TEME
TIME_SYSTEM    = UTC
MEAN_ELEMENT_THEORY = SGP/SGP4

EPOCH          = 2025-12-28T16:05:37.148640
MEAN_MOTION    = 14.86042141
ECCENTRICITY   = .00193535
INCLINATION    = 82.5283
RA_OF_ASC_NODE = 159.4888
ARG_OF_PERICENTER = 132.8915
MEAN_ANOMALY   = 227.3931

EPHEMERIS_TYPE = 0
CLASSIFICATION_TYPE = U
NORAD_CAT_ID   = 17567
ELEMENT_SET_NO = 999
REV_AT_EPOCH   = 7758
BSTAR          = .8576866E-4
MEAN_MOTION_DOT = .777E-5
MEAN_MOTION_DDOT = 0

CCSDS_OMM_VERS = 2.0
CREATION_DATE  = 
ORIGINATOR     = 

OBJECT_NAME    = COSMOS 1833
OBJECT_ID      = 1987-027A
CENTER_NAME    = EARTH
REF_FRAME      = TEME
TIME_SYSTEM    = UTC
MEAN_ELEMENT_THEORY = SGP/SGP4

EPOCH          = 2025-12-28T17:11:48.622272
MEAN_MOTION    = 14.13030664
ECCENTRICITY   = .00232865
INCLINATION    = 70.9171
RA_OF_ASC_NODE = 115.1926
ARG_OF_PERICENTER = 309.4916
MEAN_ANOMALY   = 50.4145

EPHEMERIS_TYPE = 0
CLASSIFICATION_TYPE = U
NORAD_CAT_ID   = 17589
ELEMENT_SET_NO = 999
REV_AT_EPOCH   = 29
BSTAR          = .1943136E-3
MEAN_MOTION_DOT = .315E-5
MEAN_MOTION_DDOT = 0

CCSDS_OMM_VERS = 2.0
CREATION_DATE  = 
ORIGINATOR     = 

OBJECT_NAME    = SL-16 R/B
OBJECT_ID      = 1987-027B
CENTER_NAME    = EARTH
REF_FRAME      = TEME
TIME_SYSTEM    = UTC
MEAN_ELEMENT_THEORY = SGP/SGP4

EPOCH          = 2025-12-29T04:16:34.947264
MEAN_MOTION    = 14.17156261
ECCENTRICITY   = .00071272
INCLINATION    = 71.0036
RA_OF_ASC_NODE = 65.0803
ARG_OF_PERICENTER = 242.4892
MEAN_ANOMALY   = 117.5508

EPHEMERIS_TYPE = 0
CLASSIFICATION_TYPE = U
NORAD_CAT_ID   = 17590
ELEMENT_SET_NO = 999
REV_AT_EPOCH   = 535
BSTAR          = -.61419454E-4
MEAN_MOTION_DOT = -.172E-5
MEAN_MOTION_DDOT = 0

CCSDS_OMM_VERS = 2.0
CREATION_DATE  = 
ORIGINATOR     = 

OBJECT_NAME    = SL-14 R/B
OBJECT_ID      = 1987-038B
CENTER_NAME    = EARTH
REF_FRAME      = TEME
TIME_SYSTEM    = UTC
MEAN_ELEMENT_THEORY = SGP/SGP4

EPOCH          = 2025-12-29T00:47:48.894720
MEAN_MOTION    = 14.85278197
ECCENTRICITY   = .00203631
INCLINATION    = 82.5009
RA_OF_ASC_NODE = 3.3525
ARG_OF_PERICENTER = 41.8942
MEAN_ANOMALY   = 318.3827

EPHEMERIS_TYPE = 0
CLASSIFICATION_TYPE = U
NORAD_CAT_ID   = 17912
ELEMENT_SET_NO = 999
REV_AT_EPOCH   = 6874
BSTAR          = .87004523E-4
MEAN_MOTION_DOT = .774E-5
MEAN_MOTION_DDOT = 0

CCSDS_OMM_VERS = 2.0
CREATION_DATE  = 
ORIGINATOR     = 

OBJECT_NAME    = COSMOS 1844
OBJECT_ID      = 1987-041A
CENTER_NAME    = EARTH
REF_FRAME      = TEME
TIME_SYSTEM    = UTC
MEAN_ELEMENT_THEORY = SGP/SGP4

EPOCH          = 2025-12-28T23:14:01.336992
MEAN_MOTION    = 14.14534651
ECCENTRICITY   = .00292551
INCLINATION    = 70.8975
RA_OF_ASC_NODE = 183.3429
ARG_OF_PERICENTER = 131.3770
MEAN_ANOMALY   = 228.9874

EPHEMERIS_TYPE = 0
CLASSIFICATION_TYPE = U
NORAD_CAT_ID   = 17973
ELEMENT_SET_NO = 999
REV_AT_EPOCH   = 99358
BSTAR          = .21670902E-3
MEAN_MOTION_DOT = .369E-5
MEAN_MOTION_DDOT = 0

CCSDS_OMM_VERS = 2.0
CREATION_DATE  = 
ORIGINATOR     = 

OBJECT_NAME    = SL-14 R/B
OBJECT_ID      = 1987-055B
CENTER_NAME    = EARTH
REF_FRAME      = TEME
TIME_SYSTEM    = UTC
MEAN_ELEMENT_THEORY = SGP/SGP4

EPOCH          = 2025-12-29T05:22:59.716992
MEAN_MOTION    = 14.85539208
ECCENTRICITY   = .00192974
INCLINATION    = 82.4987
RA_OF_ASC_NODE = 55.4520
ARG_OF_PERICENTER = 244.7336
MEAN_ANOMALY   = 115.1881

EPHEMERIS_TYPE = 0
CLASSIFICATION_TYPE = U
NORAD_CAT_ID   = 18153
ELEMENT_SET_NO = 999
REV_AT_EPOCH   = 5947
BSTAR          = .79178408E-4
MEAN_MOTION_DOT = .71E-5
MEAN_MOTION_DDOT = 0

CCSDS_OMM_VERS = 2.0
CREATION_DATE  = 
ORIGINATOR     = 

OBJECT_NAME    = COSMOS 1867
OBJECT_ID      = 1987-060A
CENTER_NAME    = EARTH
REF_FRAME      = TEME
TIME_SYSTEM    = UTC
MEAN_ELEMENT_THEORY = SGP/SGP4

EPOCH          = 2025-12-28T19:27:43.656480
MEAN_MOTION    = 14.31488883
ECCENTRICITY   = .00137007
INCLINATION    = 65.0095
RA_OF_ASC_NODE = 145.1965
ARG_OF_PERICENTER = 272.7062
MEAN_ANOMALY   = 87.2454

EPHEMERIS_TYPE = 0
CLASSIFICATION_TYPE = U
NORAD_CAT_ID   = 18187
ELEMENT_SET_NO = 999
REV_AT_EPOCH   = 979
BSTAR          = .46222321E-4
MEAN_MOTION_DOT = .23E-6
MEAN_MOTION_DDOT = 0

CCSDS_OMM_VERS = 2.0
CREATION_DATE  = 
ORIGINATOR     = 

OBJECT_NAME    = SL-14 R/B
OBJECT_ID      = 1988-001B
CENTER_NAME    = EARTH
REF_FRAME      = TEME
TIME_SYSTEM    = UTC
MEAN_ELEMENT_THEORY = SGP/SGP4

EPOCH          = 2025-12-29T05:09:36.476064
MEAN_MOTION    = 14.85442077
ECCENTRICITY   = .0019545
INCLINATION    = 82.5133
RA_OF_ASC_NODE = 261.6526
ARG_OF_PERICENTER = 109.6455
MEAN_ANOMALY   = 250.6873

EPHEMERIS_TYPE = 0
CLASSIFICATION_TYPE = U
NORAD_CAT_ID   = 18749
ELEMENT_SET_NO = 999
REV_AT_EPOCH   = 3156
BSTAR          = .78224803E-4
MEAN_MOTION_DOT = .701E-5
MEAN_MOTION_DDOT = 0

