SL-14 R/B               
1 16792U 86046B   25362.81345211  .00000751  00000+0  83727-4 0  9995
2 16792  82.4820 147.1339 0024601 101.6791 258.7188 14.85503332115883
SL-14 R/B               
1 16882U 86055B   25363.03146458  .00000762  00000+0  85138-4 0  9992
2 16882  82.5192 193.0635 0018299 201.9284 316.7036 14.85547928108879
AJISAI (EGS)            
1 16908U 86061A   25363.29076836 -.00000089  00000+0  56599-4 0  9990
2 16908  50.0110 309.8245 0011321 107.4251 341.9928 12.44514472459235
COSMOS 1812             
1 17295U 87003A   25363.22637491  .00153454  00000+0  84755-3 0  9998
2 17295  82.4870 274.1257 0005767  64.7602 295.4262 15.79169575133252
SL-14 R/B               
1 17567U 87024B   25362.67056885  .00000777  00000+0  85769-4 0  9999
2 17567  82.5283 159.4888 0019353 132.8915 227.3931 14.86042141 77584
COSMOS 1833             
1 17589U 87027A   25362.71653498  .00000315  00000+0  19431-3 0  9994
2 17589  70.9171 115.1926 0023286 309.4916  50.4145 14.13030664   293
SL-16 R/B               
1 17590U 87027B   25363.17818226 -.00000172  00000+0 -61419-4 0  9996
2 17590  71.0036  65.0803 0007127 242.4892 117.5508 14.17156261  5355
SL-14 R/B               
1 17912U 87038B   25363.03320480  .00000774  00000+0  87005-4 0  9996
2 17912  82.5009   3.3525 0020363  41.8942 318.3827 14.85278197 68745
COSMOS 1844             
1 17973U 87041A   25362.96807103  .00000369  00000+0  21671-3 0  9996
2 17973  70.8975 183.3429 0029255 131.3770 228.9874 14.14534651993588
SL-14 R/B               
1 18153U 87055B   25363.22430228  .00000710  00000+0  79178-4 0  9998
2 18153  82.4987  55.4520 0019297 244.7336 115.1881 14.85539208 59471
COSMOS 1867             
1 18187U 87060A   25362.81092195  .00000023  00000+0  46222-4 0  9993
2 18187  65.0095 145.1965 0013700 272.7062  87.2454 14.31488883  9793
SL-14 R/B               
1 18749U 88001B   25363.21500551  .00000701  00000+0  78225-4 0  9999
2 18749  82.5133 261.6526 0019545 109.6455 250.6873 14.85442077 31563
